CCSDS_OMM_VERS = 2.0
CREATION_DATE  = 
ORIGINATOR     = 

OBJECT_NAME    = UNKNOWN
OBJECT_ID      = 
CENTER_NAME    = EARTH
REF_FRAME      = TEME
TIME_SYSTEM    = UTC
MEAN_ELEMENT_THEORY = SGP/SGP4

EPOCH          = 2026-01-14T04:12:19.565280
MEAN_MOTION    = 13.87050230
ECCENTRICITY   = .00650208
INCLINATION    = 89.9309
RA_OF_ASC_NODE = 346.3075
ARG_OF_PERICENTER = 102.0689
MEAN_ANOMALY   = 258.7779

EPHEMERIS_TYPE = 0
CLASSIFICATION_TYPE = U
NORAD_CAT_ID   = 270204
ELEMENT_SET_NO = 999
REV_AT_EPOCH   = 30831
BSTAR          = .18377866E-2
MEAN_MOTION_DOT = .2199E-4
MEAN_MOTION_DDOT = 0

CCSDS_OMM_VERS = 2.0
CREATION_DATE  = 
ORIGINATOR     = 

OBJECT_NAME    = UNKNOWN
OBJECT_ID      = 
CENTER_NAME    = EARTH
REF_FRAME      = TEME
TIME_SYSTEM    = UTC
MEAN_ELEMENT_THEORY = SGP/SGP4

EPOCH          = 2026-01-13T05:18:53.777664
MEAN_MOTION    = 12.25229432
ECCENTRICITY   = .01008496
INCLINATION    = 47.2250
RA_OF_ASC_NODE = 189.4887
ARG_OF_PERICENTER = 35.2393
MEAN_ANOMALY   = 325.5014

EPHEMERIS_TYPE = 0
CLASSIFICATION_TYPE = U
NORAD_CAT_ID   = 270205
ELEMENT_SET_NO = 999
REV_AT_EPOCH   = 3504
BSTAR          = .3734356E-2
MEAN_MOTION_DOT = .333E-5
MEAN_MOTION_DDOT = 0

CCSDS_OMM_VERS = 2.0
CREATION_DATE  = 
ORIGINATOR     = 

OBJECT_NAME    = UNKNOWN
OBJECT_ID      = 
CENTER_NAME    = EARTH
REF_FRAME      = TEME
TIME_SYSTEM    = UTC
MEAN_ELEMENT_THEORY = SGP/SGP4

EPOCH          = 2026-01-05T09:08:46.249440
MEAN_MOTION    = 14.32117109
ECCENTRICITY   = .00511973
INCLINATION    = 98.5228
RA_OF_ASC_NODE = 50.8258
ARG_OF_PERICENTER = 41.2100
MEAN_ANOMALY   = 319.2932

EPHEMERIS_TYPE = 0
CLASSIFICATION_TYPE = U
NORAD_CAT_ID   = 270207
ELEMENT_SET_NO = 999
REV_AT_EPOCH   = 31680
BSTAR          = .91412232E-3
MEAN_MOTION_DOT = .2452E-4
MEAN_MOTION_DDOT = 0

CCSDS_OMM_VERS = 2.0
CREATION_DATE  = 
ORIGINATOR     = 

OBJECT_NAME    = UNKNOWN
OBJECT_ID      = 
CENTER_NAME    = EARTH
REF_FRAME      = TEME
TIME_SYSTEM    = UTC
MEAN_ELEMENT_THEORY = SGP/SGP4

EPOCH          = 2026-01-13T09:37:36.078528
MEAN_MOTION    = 14.37178979
ECCENTRICITY   = .00025348
INCLINATION    = 86.3926
RA_OF_ASC_NODE = 56.7255
ARG_OF_PERICENTER = 90.4720
MEAN_ANOMALY   = 269.6768

EPHEMERIS_TYPE = 0
CLASSIFICATION_TYPE = U
NORAD_CAT_ID   = 270209
ELEMENT_SET_NO = 999
REV_AT_EPOCH   = 31831
BSTAR          = .14710802E-3
MEAN_MOTION_DOT = .457E-5
MEAN_MOTION_DDOT = 0

CCSDS_OMM_VERS = 2.0
CREATION_DATE  = 
ORIGINATOR     = 

OBJECT_NAME    = UNKNOWN
OBJECT_ID      = 
CENTER_NAME    = EARTH
REF_FRAME      = TEME
TIME_SYSTEM    = UTC
MEAN_ELEMENT_THEORY = SGP/SGP4

EPOCH          = 2026-01-11T18:42:44.531712
MEAN_MOTION    = 14.37232960
ECCENTRICITY   = .00026127
INCLINATION    = 86.3944
RA_OF_ASC_NODE = 25.7113
ARG_OF_PERICENTER = 76.0105
MEAN_ANOMALY   = 284.1382

EPHEMERIS_TYPE = 0
CLASSIFICATION_TYPE = U
NORAD_CAT_ID   = 270210
ELEMENT_SET_NO = 999
REV_AT_EPOCH   = 31811
BSTAR          = .18244515E-3
MEAN_MOTION_DOT = .563E-5
MEAN_MOTION_DDOT = 0

CCSDS_OMM_VERS = 2.0
CREATION_DATE  = 
ORIGINATOR     = 

OBJECT_NAME    = UNKNOWN
OBJECT_ID      = 
CENTER_NAME    = EARTH
REF_FRAME      = TEME
TIME_SYSTEM    = UTC
MEAN_ELEMENT_THEORY = SGP/SGP4

EPOCH          = 2026-01-11T23:32:50.175456
MEAN_MOTION    = 12.88820663
ECCENTRICITY   = .02130977
INCLINATION    = 82.4884
RA_OF_ASC_NODE = 271.2257
ARG_OF_PERICENTER = 290.4076
MEAN_ANOMALY   = 67.4260

EPHEMERIS_TYPE = 0
CLASSIFICATION_TYPE = U
NORAD_CAT_ID   = 270211
ELEMENT_SET_NO = 999
REV_AT_EPOCH   = 28765
BSTAR          = .11923867E-3
MEAN_MOTION_DOT = .43E-6
MEAN_MOTION_DDOT = 0

CCSDS_OMM_VERS = 2.0
CREATION_DATE  = 
ORIGINATOR     = 

OBJECT_NAME    = UNKNOWN
OBJECT_ID      = 
CENTER_NAME    = EARTH
REF_FRAME      = TEME
TIME_SYSTEM    = UTC
MEAN_ELEMENT_THEORY = SGP/SGP4

EPOCH          = 2026-01-03T10:53:18.458304
MEAN_MOTION    = 11.82276581
ECCENTRICITY   = .10332577
INCLINATION    = 83.2373
RA_OF_ASC_NODE = 269.1069
ARG_OF_PERICENTER = 60.8772
MEAN_ANOMALY   = 309.1725

EPHEMERIS_TYPE = 0
CLASSIFICATION_TYPE = U
NORAD_CAT_ID   = 270212
ELEMENT_SET_NO = 999
REV_AT_EPOCH   = 26189
BSTAR          = .18415033E-1
MEAN_MOTION_DOT = .5227E-4
MEAN_MOTION_DDOT = 0

CCSDS_OMM_VERS = 2.0
CREATION_DATE  = 
ORIGINATOR     = 

OBJECT_NAME    = UNKNOWN
OBJECT_ID      = 
CENTER_NAME    = EARTH
REF_FRAME      = TEME
TIME_SYSTEM    = UTC
MEAN_ELEMENT_THEORY = SGP/SGP4

EPOCH          = 2026-01-12T19:26:28.194720
MEAN_MOTION    = 14.41043489
ECCENTRICITY   = .0161814
INCLINATION    = 97.0582
RA_OF_ASC_NODE = 43.6913
ARG_OF_PERICENTER = 130.7519
MEAN_ANOMALY   = 230.7851

EPHEMERIS_TYPE = 0
CLASSIFICATION_TYPE = U
NORAD_CAT_ID   = 270213
ELEMENT_SET_NO = 999
REV_AT_EPOCH   = 8862
BSTAR          = .12228524E-2
MEAN_MOTION_DOT = .4564E-4
MEAN_MOTION_DDOT = 0

CCSDS_OMM_VERS = 2.0
CREATION_DATE  = 
ORIGINATOR     = 

OBJECT_NAME    = UNKNOWN
OBJECT_ID      = 
CENTER_NAME    = EARTH
REF_FRAME      = TEME
TIME_SYSTEM    = UTC
MEAN_ELEMENT_THEORY = SGP/SGP4

EPOCH          = 2026-01-12T09:12:16.210944
MEAN_MOTION    = 13.99107886
ECCENTRICITY   = .00167608
INCLINATION    = 82.5467
RA_OF_ASC_NODE = 53.5482
ARG_OF_PERICENTER = 77.9326
MEAN_ANOMALY   = 282.3720

EPHEMERIS_TYPE = 0
CLASSIFICATION_TYPE = U
NORAD_CAT_ID   = 270215
ELEMENT_SET_NO = 999
REV_AT_EPOCH   = 31151
BSTAR          = .14811817E-2
MEAN_MOTION_DOT = .2161E-4
MEAN_MOTION_DDOT = 0

CCSDS_OMM_VERS = 2.0
CREATION_DATE  = 
ORIGINATOR     = 

OBJECT_NAME    = UNKNOWN
OBJECT_ID      = 
CENTER_NAME    = EARTH
REF_FRAME      = TEME
TIME_SYSTEM    = UTC
MEAN_ELEMENT_THEORY = SGP/SGP4

EPOCH          = 2026-01-04T06:09:29.809728
MEAN_MOTION    = 13.05973377
ECCENTRICITY   = .0032152
INCLINATION    = 90.3127
RA_OF_ASC_NODE = 12.2444
ARG_OF_PERICENTER = 191.9101
MEAN_ANOMALY   = 168.1268

EPHEMERIS_TYPE = 0
CLASSIFICATION_TYPE = U
NORAD_CAT_ID   = 270216
ELEMENT_SET_NO = 999
REV_AT_EPOCH   = 28717
BSTAR          = .5415435E-3
MEAN_MOTION_DOT = .185E-5
MEAN_MOTION_DDOT = 0

CCSDS_OMM_VERS = 2.0
CREATION_DATE  = 
ORIGINATOR     = 

OBJECT_NAME    = UNKNOWN
OBJECT_ID      = 
CENTER_NAME    = EARTH
REF_FRAME      = TEME
TIME_SYSTEM    = UTC
MEAN_ELEMENT_THEORY = SGP/SGP4

EPOCH          = 2025-12-28T14:33:15.075936
MEAN_MOTION    = 12.11726622
ECCENTRICITY   = .08635048
INCLINATION    = 83.3290
RA_OF_ASC_NODE = 119.7127
ARG_OF_PERICENTER = 110.7821
MEAN_ANOMALY   = 258.7877

EPHEMERIS_TYPE = 0
CLASSIFICATION_TYPE = U
NORAD_CAT_ID   = 270217
ELEMENT_SET_NO = 999
REV_AT_EPOCH   = 26857
BSTAR          = -.21868596E-2
MEAN_MOTION_DOT = -.628E-5
MEAN_MOTION_DDOT = 0

CCSDS_OMM_VERS = 2.0
CREATION_DATE  = 
ORIGINATOR     = 

OBJECT_NAME    = UNKNOWN
OBJECT_ID      = 
CENTER_NAME    = EARTH
REF_FRAME      = TEME
TIME_SYSTEM    = UTC
MEAN_ELEMENT_THEORY = SGP/SGP4

EPOCH          = 2025-12-27T04:30:15.273792
MEAN_MOTION    = 13.59053379
ECCENTRICITY   = .05056707
INCLINATION    = 98.8544
RA_OF_ASC_NODE = 157.6038
ARG_OF_PERICENTER = 183.1576
MEAN_ANOMALY   = 176.6335

EPHEMERIS_TYPE = 0
CLASSIFICATION_TYPE = U
NORAD_CAT_ID   = 270218
ELEMENT_SET_NO = 999
REV_AT_EPOCH   = 29239
BSTAR          = .51404725E-2
MEAN_MOTION_DOT = .8779E-4
MEAN_MOTION_DDOT = 0

CCSDS_OMM_VERS = 2.0
CREATION_DATE  = 
ORIGINATOR     = 

OBJECT_NAME    = UNKNOWN
OBJECT_ID      = 
CENTER_NAME    = EARTH
REF_FRAME      = TEME
TIME_SYSTEM    = UTC
MEAN_ELEMENT_THEORY = SGP/SGP4

EPOCH          = 2026-01-08T16:40:55.710336
MEAN_MOTION    = 12.56931092
ECCENTRICITY   = .00287258
INCLINATION    = 101.9320
RA_OF_ASC_NODE = 353.4092
ARG_OF_PERICENTER = 165.2082
MEAN_ANOMALY   = 194.9838

EPHEMERIS_TYPE = 0
CLASSIFICATION_TYPE = U
NORAD_CAT_ID   = 270219
ELEMENT_SET_NO = 999
REV_AT_EPOCH   = 27885
BSTAR          = .22040361E-3
MEAN_MOTION_DOT = -.1E-6
MEAN_MOTION_DDOT = 0

CCSDS_OMM_VERS = 2.0
CREATION_DATE  = 
ORIGINATOR     = 

OBJECT_NAME    = UNKNOWN
OBJECT_ID      = 
CENTER_NAME    = EARTH
REF_FRAME      = TEME
TIME_SYSTEM    = UTC
MEAN_ELEMENT_THEORY = SGP/SGP4

EPOCH          = 2026-01-14T12:42:47.109024
MEAN_MOTION    = 14.48129704
ECCENTRICITY   = .00317072
INCLINATION    = 81.2113
RA_OF_ASC_NODE = 98.3754
ARG_OF_PERICENTER = 185.6958
MEAN_ANOMALY   = 174.3878

EPHEMERIS_TYPE = 0
CLASSIFICATION_TYPE = U
NORAD_CAT_ID   = 270220
ELEMENT_SET_NO = 999
REV_AT_EPOCH   = 31650
BSTAR          = .48587E-3
MEAN_MOTION_DOT = .1833E-4
MEAN_MOTION_DDOT = 0

CCSDS_OMM_VERS = 2.0
CREATION_DATE  = 
ORIGINATOR     = 

OBJECT_NAME    = UNKNOWN
OBJECT_ID      = 
CENTER_NAME    = EARTH
REF_FRAME      = TEME
TIME_SYSTEM    = UTC
MEAN_ELEMENT_THEORY = SGP/SGP4

EPOCH          = 2026-01-11T22:56:56.835168
MEAN_MOTION    = 11.85896415
ECCENTRICITY   = .10552372
INCLINATION    = 83.1617
RA_OF_ASC_NODE = 99.4185
ARG_OF_PERICENTER = 208.4885
MEAN_ANOMALY   = 145.4398

EPHEMERIS_TYPE = 0
CLASSIFICATION_TYPE = U
NORAD_CAT_ID   = 270221
ELEMENT_SET_NO = 999
REV_AT_EPOCH   = 26339
BSTAR          = .33259887E-2
MEAN_MOTION_DOT = .1084E-4
MEAN_MOTION_DDOT = 0

CCSDS_OMM_VERS = 2.0
CREATION_DATE  = 
ORIGINATOR     = 

OBJECT_NAME    = UNKNOWN
OBJECT_ID      = 
CENTER_NAME    = EARTH
REF_FRAME      = TEME
TIME_SYSTEM    = UTC
MEAN_ELEMENT_THEORY = SGP/SGP4

EPOCH          = 2026-01-13T06:09:25.589952
MEAN_MOTION    = 12.95492762
ECCENTRICITY   = .00339212
INCLINATION    = 90.2496
RA_OF_ASC_NODE = 2.9459
ARG_OF_PERICENTER = 252.3552
MEAN_ANOMALY   = 107.3862

EPHEMERIS_TYPE = 0
CLASSIFICATION_TYPE = U
NORAD_CAT_ID   = 270222
ELEMENT_SET_NO = 999
REV_AT_EPOCH   = 28680
BSTAR          = .21438075E-2
MEAN_MOTION_DOT = .614E-5
MEAN_MOTION_DDOT = 0

